[{"OBJECT_NAME":"IXPE","OBJECT_ID":"2021-121A","EPOCH":"2026-03-10T00:00:02.999808","MEAN_MOTION":15.09223379,"ECCENTRICITY":0.00072712,"INCLINATION":0.2307,"RA_OF_ASC_NODE":347.0223,"ARG_OF_PERICENTER":20.3591,"MEAN_ANOMALY":57.9535,"EPHEMERIS_TYPE":0,"CLASSIFICATION_TYPE":"U","NORAD_CAT_ID":49954,"ELEMENT_SET_NO":999,"REV_AT_EPOCH":584,"BSTAR":0.0008624183,"MEAN_MOTION_DOT":0.00015078,"MEAN_MOTION_DDOT":0},{"OBJECT_NAME":"STARLINK-3267","OBJECT_ID":"2021-125AT","EPOCH":"2026-03-09T18:12:44.257248","MEAN_MOTION":15.08838654,"ECCENTRICITY":0.00013459,"INCLINATION":53.2164,"RA_OF_ASC_NODE":238.8097,"ARG_OF_PERICENTER":92.7958,"MEAN_ANOMALY":267.3189,"EPHEMERIS_TYPE":0,"CLASSIFICATION_TYPE":"U","NORAD_CAT_ID":50197,"ELEMENT_SET_NO":999,"REV_AT_EPOCH":23679,"BSTAR":1.3623153e-5,"MEAN_MOTION_DOT":-7.1e-7,"MEAN_MOTION_DDOT":0}]
